start=new Date('2022-07-11T00:00:00.000Z').valueOf();
sats=[{"ECCENTRICITY":"0.00021430","PERIAPSIS":"538.384","APOAPSIS":"541.349","MEAN_MOTION_DOT":"0.00045443","EPHEMERIS_TYPE":"0","ARG_OF_PERICENTER":"47.4133","BSTAR":"0.00285810000000","CLASSIFICATION_TYPE":"U","EPOCH":"2022-07-10T22:00:00.999936","NORAD_CAT_ID":"51750","TLE_LINE1":"1 51750U 22016AN  22191.91667824  .00045443  00000-0  28581-2 0  9993","DECAY_DATE":null,"SITE":"AFETR","MEAN_MOTION_DDOT":"0.0000000000000","TLE_LINE2":"2 51750  53.2152 194.6212 0002143  47.4133 314.2264 15.08800367  1310","REV_AT_EPOCH":"131","FILE":"3511318","TIME_SYSTEM":"UTC","INCLINATION":"53.2152","COUNTRY_CODE":"US","ELEMENT_SET_NO":"999","PERIOD":"95.440","CENTER_NAME":"EARTH","SEMIMAJOR_AXIS":"6918.002","REF_FRAME":"TEME","LAUNCH_DATE":"2022-02-21","RCS_SIZE":"LARGE","OBJECT_ID":"2022-016AN","OBJECT_TYPE":"PAYLOAD","MEAN_MOTION":"15.08800367","RA_OF_ASC_NODE":"194.6212","MEAN_ANOMALY":"314.2264","MEAN_ELEMENT_THEORY":"SGP4","GP_ID":"207877153","OBJECT_NAME":"STARLINK-3505"},{"RA_OF_ASC_NODE":"194.6195","MEAN_MOTION":"15.08809422","MEAN_ANOMALY":"247.8370","MEAN_ELEMENT_THEORY":"SGP4","GP_ID":"207875907","OBJECT_NAME":"STARLINK-3506","TLE_LINE2":"2 51751  53.2140 194.6195 0002038  53.7992 247.8370 15.08809422  1303","FILE":"3511318","REV_AT_EPOCH":"130","COUNTRY_CODE":"US","INCLINATION":"53.2140","TIME_SYSTEM":"UTC","SEMIMAJOR_AXIS":"6917.974","PERIOD":"95.439","CENTER_NAME":"EARTH","ELEMENT_SET_NO":"999","REF_FRAME":"TEME","LAUNCH_DATE":"2022-02-21","RCS_SIZE":"LARGE","OBJECT_TYPE":"PAYLOAD","OBJECT_ID":"2022-016AP","ARG_OF_PERICENTER":"53.7992","EPHEMERIS_TYPE":"0","BSTAR":"0.00261810000000","CLASSIFICATION_TYPE":"U","EPOCH":"2022-07-10T22:00:00.999936","TLE_LINE1":"1 51751U 22016AP  22191.91667824  .00041591  00000-0  26181-2 0  9998","NORAD_CAT_ID":"51751","DECAY_DATE":null,"SITE":"AFETR","MEAN_MOTION_DDOT":"0.0000000000000","ECCENTRICITY":"0.00020380","PERIAPSIS":"538.429","APOAPSIS":"541.249","MEAN_MOTION_DOT":"0.00041591"},{"RCS_SIZE":"LARGE","LAUNCH_DATE":"2022-02-21","OBJECT_TYPE":"PAYLOAD","OBJECT_ID":"2022-016AQ","SEMIMAJOR_AXIS":"6917.937","PERIOD":"95.439","CENTER_NAME":"EARTH","ELEMENT_SET_NO":"999","REF_FRAME":"TEME","INCLINATION":"53.2154","COUNTRY_CODE":"US","TIME_SYSTEM":"UTC","TLE_LINE2":"2 51752  53.2154 194.6207 0002263  50.6652 331.0454 15.08821551  1308","FILE":"3511318","REV_AT_EPOCH":"130","GP_ID":"207876157","OBJECT_NAME":"STARLINK-3511","MEAN_ELEMENT_THEORY":"SGP4","MEAN_ANOMALY":"331.0454","RA_OF_ASC_NODE":"194.6207","MEAN_MOTION":"15.08821551","MEAN_MOTION_DOT":"0.00045233","APOAPSIS":"541.367","ECCENTRICITY":"0.00022630","PERIAPSIS":"538.236","MEAN_MOTION_DDOT":"0.0000000000000","SITE":"AFETR","TLE_LINE1":"1 51752U 22016AQ  22191.91667824  .00045233  00000-0  28434-2 0  9999","NORAD_CAT_ID":"51752","DECAY_DATE":null,"EPOCH":"2022-07-10T22:00:00.999936","EPHEMERIS_TYPE":"0","ARG_OF_PERICENTER":"50.6652","BSTAR":"0.00284340000000","CLASSIFICATION_TYPE":"U"},{"APOAPSIS":"541.156","MEAN_MOTION_DOT":"0.00044601","PERIAPSIS":"538.473","ECCENTRICITY":"0.00019390","DECAY_DATE":null,"NORAD_CAT_ID":"51753","TLE_LINE1":"1 51753U 22016AR  22191.91667824  .00044601  00000-0  28045-2 0  9996","MEAN_MOTION_DDOT":"0.0000000000000","SITE":"AFETR","BSTAR":"0.00280450000000","CLASSIFICATION_TYPE":"U","EPHEMERIS_TYPE":"0","ARG_OF_PERICENTER":"54.8445","EPOCH":"2022-07-10T22:00:00.999936","REF_FRAME":"TEME","ELEMENT_SET_NO":"999","PERIOD":"95.439","CENTER_NAME":"EARTH","SEMIMAJOR_AXIS":"6917.950","OBJECT_ID":"2022-016AR","OBJECT_TYPE":"PAYLOAD","LAUNCH_DATE":"2022-02-21","RCS_SIZE":"LARGE","REV_AT_EPOCH":"130","FILE":"3511318","TLE_LINE2":"2 51753  53.2142 194.6194 0001939  54.8445 286.8385 15.08817352  1300","TIME_SYSTEM":"UTC","INCLINATION":"53.2142","COUNTRY_CODE":"US","MEAN_ELEMENT_THEORY":"SGP4","MEAN_ANOMALY":"286.8385","OBJECT_NAME":"STARLINK-3507","GP_ID":"207876909","MEAN_MOTION":"15.08817352","RA_OF_ASC_NODE":"194.6194"},{"MEAN_ELEMENT_THEORY":"SGP4","MEAN_ANOMALY":"9.8466","OBJECT_NAME":"STARLINK-3457","GP_ID":"207876653","RA_OF_ASC_NODE":"194.6167","MEAN_MOTION":"15.08798850","REF_FRAME":"TEME","CENTER_NAME":"EARTH","PERIOD":"95.440","SEMIMAJOR_AXIS":"6918.006","ELEMENT_SET_NO":"999","OBJECT_ID":"2022-016AS","OBJECT_TYPE":"PAYLOAD","RCS_SIZE":"LARGE","LAUNCH_DATE":"2022-02-21","FILE":"3511318","REV_AT_EPOCH":"130","TLE_LINE2":"2 51754  53.2144 194.6167 0002015  46.5653   9.8466 15.08798850  1302","INCLINATION":"53.2144","COUNTRY_CODE":"US","TIME_SYSTEM":"UTC","DECAY_DATE":null,"TLE_LINE1":"1 51754U 22016AS  22191.91667824  .00044337  00000-0  27895-2 0  9995","NORAD_CAT_ID":"51754","SITE":"AFETR","MEAN_MOTION_DDOT":"0.0000000000000","BSTAR":"0.00278950000000","CLASSIFICATION_TYPE":"U","ARG_OF_PERICENTER":"46.5653","EPHEMERIS_TYPE":"0","EPOCH":"2022-07-10T22:00:00.999936","APOAPSIS":"541.265","MEAN_MOTION_DOT":"0.00044337","PERIAPSIS":"538.477","ECCENTRICITY":"0.00020150"},{"RA_OF_ASC_NODE":"194.6185","MEAN_MOTION":"15.08816055","MEAN_ELEMENT_THEORY":"SGP4","MEAN_ANOMALY":"352.4288","GP_ID":"207875407","OBJECT_NAME":"STARLINK-3460","TLE_LINE2":"2 51755  53.2147 194.6185 0002159  49.2395 352.4288 15.08816055  1305","FILE":"3511318","REV_AT_EPOCH":"130","COUNTRY_CODE":"US","INCLINATION":"53.2147","TIME_SYSTEM":"UTC","PERIOD":"95.439","CENTER_NAME":"EARTH","SEMIMAJOR_AXIS":"6917.954","ELEMENT_SET_NO":"999","REF_FRAME":"TEME","LAUNCH_DATE":"2022-02-21","RCS_SIZE":"LARGE","OBJECT_TYPE":"PAYLOAD","OBJECT_ID":"2022-016AT","EPHEMERIS_TYPE":"0","ARG_OF_PERICENTER":"49.2395","BSTAR":"0.00282670000000","CLASSIFICATION_TYPE":"U","EPOCH":"2022-07-10T22:00:00.999936","TLE_LINE1":"1 51755U 22016AT  22191.91667824  .00044957  00000-0  28267-2 0  9998","NORAD_CAT_ID":"51755","DECAY_DATE":null,"MEAN_MOTION_DDOT":"0.0000000000000","SITE":"AFETR","ECCENTRICITY":"0.00021590","PERIAPSIS":"538.325","APOAPSIS":"541.312","MEAN_MOTION_DOT":"0.00044957"},{"EPOCH":"2022-07-10T22:00:00.999936","EPHEMERIS_TYPE":"0","ARG_OF_PERICENTER":"48.8990","BSTAR":"0.00309130000000","CLASSIFICATION_TYPE":"U","MEAN_MOTION_DDOT":"0.0000000000000","SITE":"AFETR","NORAD_CAT_ID":"51756","TLE_LINE1":"1 51756U 22016AU  22191.91667824  .00049203  00000-0  30913-2 0  9999","DECAY_DATE":null,"ECCENTRICITY":"0.00017500","PERIAPSIS":"538.650","MEAN_MOTION_DOT":"0.00049203","APOAPSIS":"541.071","MEAN_MOTION":"15.08802328","RA_OF_ASC_NODE":"194.6006","GP_ID":"207875657","OBJECT_NAME":"STARLINK-3513","MEAN_ANOMALY":"152.6600","MEAN_ELEMENT_THEORY":"SGP4","TIME_SYSTEM":"UTC","COUNTRY_CODE":"US","INCLINATION":"53.2165","TLE_LINE2":"2 51756  53.2165 194.6006 0001750  48.8990 152.6600 15.08802328  1306","REV_AT_EPOCH":"130","FILE":"3511318","LAUNCH_DATE":"2022-02-21","RCS_SIZE":"MEDIUM","OBJECT_ID":"2022-016AU","OBJECT_TYPE":"PAYLOAD","ELEMENT_SET_NO":"999","CENTER_NAME":"EARTH","PERIOD":"95.440","SEMIMAJOR_AXIS":"6917.996","REF_FRAME":"TEME"},{"MEAN_MOTION_DOT":"0.00037076","APOAPSIS":"541.232","ECCENTRICITY":"0.00020850","PERIAPSIS":"538.347","MEAN_MOTION_DDOT":"0.0000000000000","SITE":"AFETR","TLE_LINE1":"1 51757U 22016AV  22191.91667824  .00037076  00000-0  23363-2 0  9996","NORAD_CAT_ID":"51757","DECAY_DATE":null,"EPOCH":"2022-07-10T22:00:00.999936","EPHEMERIS_TYPE":"0","ARG_OF_PERICENTER":"49.9683","BSTAR":"0.00233630000000","CLASSIFICATION_TYPE":"U","RCS_SIZE":"LARGE","LAUNCH_DATE":"2022-02-21","OBJECT_TYPE":"PAYLOAD","OBJECT_ID":"2022-016AV","SEMIMAJOR_AXIS":"6917.925","PERIOD":"95.438","CENTER_NAME":"EARTH","ELEMENT_SET_NO":"999","REF_FRAME":"TEME","COUNTRY_CODE":"US","INCLINATION":"53.2159","TIME_SYSTEM":"UTC","TLE_LINE2":"2 51757  53.2159 194.5999 0002085  49.9683 171.6884 15.08825511  1307","FILE":"3511318","REV_AT_EPOCH":"130","GP_ID":"207876409","OBJECT_NAME":"STARLINK-3459","MEAN_ELEMENT_THEORY":"SGP4","MEAN_ANOMALY":"171.6884","RA_OF_ASC_NODE":"194.5999","MEAN_MOTION":"15.08825511"},{"FILE":"3511318","REV_AT_EPOCH":"130","TLE_LINE2":"2 51758  53.2150 194.5988 0001696  61.2181 175.2667 15.08823018  1303","COUNTRY_CODE":"US","INCLINATION":"53.2150","TIME_SYSTEM":"UTC","REF_FRAME":"TEME","SEMIMAJOR_AXIS":"6917.932","PERIOD":"95.439","CENTER_NAME":"EARTH","ELEMENT_SET_NO":"999","OBJECT_ID":"2022-016AW","OBJECT_TYPE":"PAYLOAD","LAUNCH_DATE":"2022-02-21","RCS_SIZE":"LARGE","RA_OF_ASC_NODE":"194.5988","MEAN_MOTION":"15.08823018","MEAN_ELEMENT_THEORY":"SGP4","MEAN_ANOMALY":"175.2667","OBJECT_NAME":"STARLINK-3458","GP_ID":"207877154","PERIAPSIS":"538.624","ECCENTRICITY":"0.00016960","APOAPSIS":"540.971","MEAN_MOTION_DOT":"0.00037951","BSTAR":"0.00239090000000","CLASSIFICATION_TYPE":"U","ARG_OF_PERICENTER":"61.2181","EPHEMERIS_TYPE":"0","EPOCH":"2022-07-10T22:00:00.999936","DECAY_DATE":null,"TLE_LINE1":"1 51758U 22016AW  22191.91667824  .00037951  00000-0  23909-2 0  9995","NORAD_CAT_ID":"51758","MEAN_MOTION_DDOT":"0.0000000000000","SITE":"AFETR"},{"APOAPSIS":"540.783","MEAN_MOTION_DOT":"0.00038102","ECCENTRICITY":"0.00013810","PERIAPSIS":"538.873","TLE_LINE1":"1 51759U 22016AX  22191.91667824  .00038102  00000-0  24010-2 0  9999","NORAD_CAT_ID":"51759","DECAY_DATE":null,"SITE":"AFETR","MEAN_MOTION_DDOT":"0.0000000000000","ARG_OF_PERICENTER":"75.9066","EPHEMERIS_TYPE":"0","BSTAR":"0.00240100000000","CLASSIFICATION_TYPE":"U","EPOCH":"2022-07-10T22:00:00.999936","PERIOD":"95.439","SEMIMAJOR_AXIS":"6917.963","CENTER_NAME":"EARTH","ELEMENT_SET_NO":"999","REF_FRAME":"TEME","RCS_SIZE":"LARGE","LAUNCH_DATE":"2022-02-21","OBJECT_TYPE":"PAYLOAD","OBJECT_ID":"2022-016AX","TLE_LINE2":"2 51759  53.2156 194.5997 0001381  75.9066 165.7405 15.08812962  1305","FILE":"3511318","REV_AT_EPOCH":"130","INCLINATION":"53.2156","COUNTRY_CODE":"US","TIME_SYSTEM":"UTC","MEAN_ELEMENT_THEORY":"SGP4","MEAN_ANOMALY":"165.7405","GP_ID":"207875908","OBJECT_NAME":"STARLINK-3456","RA_OF_ASC_NODE":"194.5997","MEAN_MOTION":"15.08812962"}];
